{
  "addresses": [
    {
      "street": "123 Main Street",
      "city": "Springfield",
      "state": "IL",
      "stateName": "Illinois",
      "region": "Midwest",
      "zipCode": "62701"
    },
    {
      "street": "456 Oak Avenue",
      "city": "New York",
      "state": "NY",
      "stateName": "New York",
      "region": "Northeast",
      "zipCode": "10001"
    },
    {
      "street": "789 Elm Drive",
      "city": "Houston",
      "state": "TX",
      "stateName": "Texas",
      "region": "South",
      "zipCode": "77001"
    },
    {
      "street": "321 Pine Road",
      "city": "Los Angeles",
      "state": "CA",
      "stateName": "California",
      "region": "West",
      "zipCode": "90001"
    },
    {
      "street": "654 Maple Lane",
      "city": "Miami",
      "state": "FL",
      "stateName": "Florida",
      "region": "South",
      "zipCode": "33101"
    },
    {
      "street": "987 Cedar Court",
      "city": "Seattle",
      "state": "WA",
      "stateName": "Washington",
      "region": "Northwest",
      "zipCode": "98101"
    },
    {
      "street": "147 Birch Way",
      "city": "Atlanta",
      "state": "GA",
      "stateName": "Georgia",
      "region": "South",
      "zipCode": "30301"
    },
    {
      "street": "258 Walnut Street",
      "city": "Boston",
      "state": "MA",
      "stateName": "Massachusetts",
      "region": "Northeast",
      "zipCode": "02101"
    },
    {
      "street": "369 Ash Boulevard",
      "city": "Phoenix",
      "state": "AZ",
      "stateName": "Arizona",
      "region": "Southwest",
      "zipCode": "85001"
    },
    {
      "street": "741 Cherry Circle",
      "city": "Philadelphia",
      "state": "PA",
      "stateName": "Pennsylvania",
      "region": "Northeast",
      "zipCode": "19101"
    }
  ],
  "_metadata": {
    "source": "Curated addresses with diverse US states (standard-agnostic)",
    "lastUpdated": "2025-10-23",
    "count": 10,
    "regions": [
      "Midwest",
      "South",
      "West",
      "Southwest",
      "Northwest",
      "Northeast"
    ],
    "originalSource": "HL7 v2.3 State.json"
  }
}